{
  "type": "FeatureCollection",
  "features": [
    {
      "type": "Feature",
      "properties": {
        "norad_id": 32230,
        "name": "FENGYUN 1C DEB",
        "group": "fengyun-1c-debris",
        "lat": -36.4290940960891,
        "lon": -43.628805786977296,
        "alt_km": 741.421696473436,
        "timestamp": "2025-12-18T23:35:49.346492+00:00",
        "meta_object_name": "FENGYUN 1C DEB",
        "meta_object_id": "1999-025CWC",
        "meta_epoch": "2025-12-18T09:32:29.241024",
        "meta_mean_motion": 14.56245568,
        "meta_eccentricity": 0.00503707,
        "meta_inclination": 98.8715,
        "meta_ra_of_asc_node": 142.3682,
        "meta_arg_of_pericenter": 71.7469,
        "meta_mean_anomaly": 316.2893,
        "meta_ephemeris_type": 0,
        "meta_classification_type": "U",
        "meta_norad_cat_id": 32230,
        "meta_element_set_no": 999,
        "meta_rev_at_epoch": 60752,
        "meta_bstar": 0.0022954297,
        "meta_mean_motion_dot": 0.0001029,
        "meta_mean_motion_ddot": 0,
        "tle_line1": "1 32230U 99025CWC 25352.39756066  .00010290  00000+0  22954-2 0  9999",
        "tle_line2": "2 32230  98.8715 142.3682 0050370  71.7469 316.2893 14.56245568607523"
      },
      "geometry": {
        "type": "Point",
        "coordinates": [
          -43.628805786977296,
          -36.4290940960891
        ]
      }
    },
    {
      "type": "Feature",
      "properties": {
        "norad_id": 32234,
        "name": "FENGYUN 1C DEB",
        "group": "fengyun-1c-debris",
        "lat": 33.69065030423333,
        "lon": -163.3822232937302,
        "alt_km": 885.3156119877358,
        "timestamp": "2025-12-18T23:35:49.346502+00:00",
        "meta_object_name": "FENGYUN 1C DEB",
        "meta_object_id": "1999-025CWG",
        "meta_epoch": "2025-12-14T12:38:46.497984",
        "meta_mean_motion": 13.9413283,
        "meta_eccentricity": 0.01374559,
        "meta_inclination": 98.529,
        "meta_ra_of_asc_node": 198.2432,
        "meta_arg_of_pericenter": 331.2039,
        "meta_mean_anomaly": 28.1585,
        "meta_ephemeris_type": 0,
        "meta_classification_type": "U",
        "meta_norad_cat_id": 32234,
        "meta_element_set_no": 999,
        "meta_rev_at_epoch": 93234,
        "meta_bstar": 0.0014985343,
        "meta_mean_motion_dot": 2.108e-05,
        "meta_mean_motion_ddot": 0,
        "tle_line1": "1 32234U 99025CWG 25348.52692706  .00002108  00000+0  14985-2 0  9997",
        "tle_line2": "2 32234  98.5290 198.2432 0137455 331.2039  28.1585 13.94132830932348"
      },
      "geometry": {
        "type": "Point",
        "coordinates": [
          -163.3822232937302,
          33.69065030423333
        ]
      }
    },
    {
      "type": "Feature",
      "properties": {
        "norad_id": 32241,
        "name": "FENGYUN 1C DEB",
        "group": "fengyun-1c-debris",
        "lat": 55.440041239651606,
        "lon": -143.88886089203748,
        "alt_km": 774.4730278247043,
        "timestamp": "2025-12-18T23:35:49.346512+00:00",
        "meta_object_name": "FENGYUN 1C DEB",
        "meta_object_id": "1999-025CWP",
        "meta_epoch": "2025-12-17T08:21:13.096800",
        "meta_mean_motion": 14.28778702,
        "meta_eccentricity": 0.01465119,
        "meta_inclination": 99.0771,
        "meta_ra_of_asc_node": 20.9898,
        "meta_arg_of_pericenter": 210.2379,
        "meta_mean_anomaly": 149.0287,
        "meta_ephemeris_type": 0,
        "meta_classification_type": "U",
        "meta_norad_cat_id": 32241,
        "meta_element_set_no": 999,
        "meta_rev_at_epoch": 93889,
        "meta_bstar": 0.0010923987,
        "meta_mean_motion_dot": 3.039e-05,
        "meta_mean_motion_ddot": 0,
        "tle_line1": "1 32241U 99025CWP 25351.34806825  .00003039  00000+0  10924-2 0  9991",
        "tle_line2": "2 32241  99.0771  20.9898 0146511 210.2379 149.0287 14.28778702938899"
      },
      "geometry": {
        "type": "Point",
        "coordinates": [
          -143.88886089203748,
          55.440041239651606
        ]
      }
    },
    {
      "type": "Feature",
      "properties": {
        "norad_id": 32243,
        "name": "FENGYUN 1C DEB",
        "group": "fengyun-1c-debris",
        "lat": -68.29602836110101,
        "lon": 175.63388301373126,
        "alt_km": 1041.200990402056,
        "timestamp": "2025-12-18T23:35:49.346523+00:00",
        "meta_object_name": "FENGYUN 1C DEB",
        "meta_object_id": "1999-025CWR",
        "meta_epoch": "2025-12-16T19:08:46.301568",
        "meta_mean_motion": 14.04634248,
        "meta_eccentricity": 0.02692873,
        "meta_inclination": 98.2679,
        "meta_ra_of_asc_node": 15.0665,
        "meta_arg_of_pericenter": 112.0478,
        "meta_mean_anomaly": 250.9525,
        "meta_ephemeris_type": 0,
        "meta_classification_type": "U",
        "meta_norad_cat_id": 32243,
        "meta_element_set_no": 999,
        "meta_rev_at_epoch": 93645,
        "meta_bstar": 0.0016264779,
        "meta_mean_motion_dot": 3.562e-05,
        "meta_mean_motion_ddot": 0,
        "tle_line1": "1 32243U 99025CWR 25350.79775812  .00003562  00000+0  16265-2 0  9997",
        "tle_line2": "2 32243  98.2679  15.0665 0269287 112.0478 250.9525 14.04634248936458"
      },
      "geometry": {
        "type": "Point",
        "coordinates": [
          175.63388301373126,
          -68.29602836110101
        ]
      }
    },
    {
      "type": "Feature",
      "properties": {
        "norad_id": 32245,
        "name": "FENGYUN 1C DEB",
        "group": "fengyun-1c-debris",
        "lat": -17.271228515793553,
        "lon": -167.79991560706952,
        "alt_km": 579.5947542082586,
        "timestamp": "2025-12-18T23:35:49.346533+00:00",
        "meta_object_name": "FENGYUN 1C DEB",
        "meta_object_id": "1999-025CWT",
        "meta_epoch": "2025-12-16T06:38:31.473888",
        "meta_mean_motion": 14.77030772,
        "meta_eccentricity": 0.0097149,
        "meta_inclination": 98.6547,
        "meta_ra_of_asc_node": 186.5841,
        "meta_arg_of_pericenter": 330.7675,
        "meta_mean_anomaly": 28.8116,
        "meta_ephemeris_type": 0,
        "meta_classification_type": "U",
        "meta_norad_cat_id": 32245,
        "meta_element_set_no": 999,
        "meta_rev_at_epoch": 66158,
        "meta_bstar": 0.00082943136,
        "meta_mean_motion_dot": 6.263e-05,
        "meta_mean_motion_ddot": 0,
        "tle_line1": "1 32245U 99025CWT 25350.27675317  .00006263  00000+0  82943-3 0  9999",
        "tle_line2": "2 32245  98.6547 186.5841 0097149 330.7675  28.8116 14.77030772661581"
      },
      "geometry": {
        "type": "Point",
        "coordinates": [
          -167.79991560706952,
          -17.271228515793553
        ]
      }
    },
    {
      "type": "Feature",
      "properties": {
        "norad_id": 32304,
        "name": "FENGYUN 1C DEB",
        "group": "fengyun-1c-debris",
        "lat": 69.07278683133512,
        "lon": 153.9188796305731,
        "alt_km": 722.72534165059,
        "timestamp": "2025-12-18T23:35:49.346544+00:00",
        "meta_object_name": "FENGYUN 1C DEB",
        "meta_object_id": "1999-025CWV",
        "meta_epoch": "2025-12-03T02:19:20.087328",
        "meta_mean_motion": 14.50391603,
        "meta_eccentricity": 0.00495576,
        "meta_inclination": 99.3949,
        "meta_ra_of_asc_node": 290.5539,
        "meta_arg_of_pericenter": 255.7789,
        "meta_mean_anomaly": 103.7894,
        "meta_ephemeris_type": 0,
        "meta_classification_type": "U",
        "meta_norad_cat_id": 32304,
        "meta_element_set_no": 999,
        "meta_rev_at_epoch": 56133,
        "meta_bstar": 0.0019806873,
        "meta_mean_motion_dot": 7.809e-05,
        "meta_mean_motion_ddot": 0,
        "tle_line1": "1 32304U 99025CWV 25337.09676027  .00007809  00000+0  19807-2 0  9994",
        "tle_line2": "2 32304  99.3949 290.5539 0049557 255.7789 103.7894 14.50391603561335"
      },
      "geometry": {
        "type": "Point",
        "coordinates": [
          153.9188796305731,
          69.07278683133512
        ]
      }
    },
    {
      "type": "Feature",
      "properties": {
        "norad_id": 32308,
        "name": "FENGYUN 1C DEB",
        "group": "fengyun-1c-debris",
        "lat": 77.38513609395186,
        "lon": 7.382669999933679,
        "alt_km": 804.8432869411063,
        "timestamp": "2025-12-18T23:35:49.346554+00:00",
        "meta_object_name": "FENGYUN 1C DEB",
        "meta_object_id": "1999-025CWZ",
        "meta_epoch": "2025-12-18T02:43:23.295648",
        "meta_mean_motion": 14.05525608,
        "meta_eccentricity": 0.01083328,
        "meta_inclination": 97.7739,
        "meta_ra_of_asc_node": 44.2538,
        "meta_arg_of_pericenter": 44.9982,
        "meta_mean_anomaly": 315.9904,
        "meta_ephemeris_type": 0,
        "meta_classification_type": "U",
        "meta_norad_cat_id": 32308,
        "meta_element_set_no": 999,
        "meta_rev_at_epoch": 65487,
        "meta_bstar": 0.0012185561,
        "meta_mean_motion_dot": 2.054e-05,
        "meta_mean_motion_ddot": 0,
        "tle_line1": "1 32308U 99025CWZ 25352.11346407  .00002054  00000+0  12186-2 0  9994",
        "tle_line2": "2 32308  97.7739  44.2538 0108332  44.9982 315.9904 14.05525608654876"
      },
      "geometry": {
        "type": "Point",
        "coordinates": [
          7.382669999933679,
          77.38513609395186
        ]
      }
    }
  ]
}